CCSDS_OMM_VERS = 2.0
CREATION_DATE  = 
ORIGINATOR     = 

OBJECT_NAME    = STARLINK-36616
OBJECT_ID      = 2026-022AA
CENTER_NAME    = EARTH
REF_FRAME      = TEME
TIME_SYSTEM    = UTC
MEAN_ELEMENT_THEORY = SGP/SGP4

EPOCH          = 2026-02-12T20:00:01.999008
MEAN_MOTION    = 15.89044334
ECCENTRICITY   = .0001605
INCLINATION    = 97.2790
RA_OF_ASC_NODE = 76.5989
ARG_OF_PERICENTER = 75.2298
MEAN_ANOMALY   = 44.0929

EPHEMERIS_TYPE = 0
CLASSIFICATION_TYPE = U
NORAD_CAT_ID   = 67672
ELEMENT_SET_NO = 999
REV_AT_EPOCH   = 289
BSTAR          = -.66184E-2
MEAN_MOTION_DOT = -.1644748E-1
MEAN_MOTION_DDOT = 0

CCSDS_OMM_VERS = 2.0
CREATION_DATE  = 
ORIGINATOR     = 

OBJECT_NAME    = COSMOS 2600
OBJECT_ID      = 2026-023A
CENTER_NAME    = EARTH
REF_FRAME      = TEME
TIME_SYSTEM    = UTC
MEAN_ELEMENT_THEORY = SGP/SGP4

EPOCH          = 2026-02-12T19:21:57.182112
MEAN_MOTION    = 15.82023529
ECCENTRICITY   = .000193
INCLINATION    = 96.6494
RA_OF_ASC_NODE = 120.2298
ARG_OF_PERICENTER = 65.6252
MEAN_ANOMALY   = 294.5220

EPHEMERIS_TYPE = 0
CLASSIFICATION_TYPE = U
NORAD_CAT_ID   = 67674
ELEMENT_SET_NO = 999
REV_AT_EPOCH   = 111
BSTAR          = .37639E-3
MEAN_MOTION_DOT = .7674E-3
MEAN_MOTION_DDOT = 0

CCSDS_OMM_VERS = 2.0
CREATION_DATE  = 
ORIGINATOR     = 

OBJECT_NAME    = 2026-023B
OBJECT_ID      = 2026-023B
CENTER_NAME    = EARTH
REF_FRAME      = TEME
TIME_SYSTEM    = UTC
MEAN_ELEMENT_THEORY = SGP/SGP4

EPOCH          = 2026-02-12T19:31:17.734080
MEAN_MOTION    = 15.22366011
ECCENTRICITY   = .0017438
INCLINATION    = 96.6411
RA_OF_ASC_NODE = 119.6466
ARG_OF_PERICENTER = 219.7580
MEAN_ANOMALY   = 140.2382

EPHEMERIS_TYPE = 0
CLASSIFICATION_TYPE = U
NORAD_CAT_ID   = 67675
ELEMENT_SET_NO = 999
REV_AT_EPOCH   = 107
BSTAR          = .53752E-3
MEAN_MOTION_DOT = .12407E-3
MEAN_MOTION_DDOT = 0

CCSDS_OMM_VERS = 2.0
CREATION_DATE  = 
ORIGINATOR     = 

OBJECT_NAME    = 2026-023C
OBJECT_ID      = 2026-023C
CENTER_NAME    = EARTH
REF_FRAME      = TEME
TIME_SYSTEM    = UTC
MEAN_ELEMENT_THEORY = SGP/SGP4

EPOCH          = 2026-02-12T21:05:35.854080
MEAN_MOTION    = 15.22430334
ECCENTRICITY   = .0018638
INCLINATION    = 96.6446
RA_OF_ASC_NODE = 119.7164
ARG_OF_PERICENTER = 208.8936
MEAN_ANOMALY   = 151.1272

EPHEMERIS_TYPE = 0
CLASSIFICATION_TYPE = U
NORAD_CAT_ID   = 67676
ELEMENT_SET_NO = 999
REV_AT_EPOCH   = 124
BSTAR          = .55908E-3
MEAN_MOTION_DOT = .1294E-3
MEAN_MOTION_DDOT = 0

CCSDS_OMM_VERS = 2.0
CREATION_DATE  = 
ORIGINATOR     = 

OBJECT_NAME    = 2026-023D
OBJECT_ID      = 2026-023D
CENTER_NAME    = EARTH
REF_FRAME      = TEME
TIME_SYSTEM    = UTC
MEAN_ELEMENT_THEORY = SGP/SGP4

EPOCH          = 2026-02-12T21:06:19.040256
MEAN_MOTION    = 15.22308185
ECCENTRICITY   = .0018755
INCLINATION    = 96.6477
RA_OF_ASC_NODE = 119.6991
ARG_OF_PERICENTER = 214.2761
MEAN_ANOMALY   = 145.7269

EPHEMERIS_TYPE = 0
CLASSIFICATION_TYPE = U
NORAD_CAT_ID   = 67677
ELEMENT_SET_NO = 999
REV_AT_EPOCH   = 107
BSTAR          = .5019E-3
MEAN_MOTION_DOT = .11567E-3
MEAN_MOTION_DDOT = 0

CCSDS_OMM_VERS = 2.0
CREATION_DATE  = 
ORIGINATOR     = 

OBJECT_NAME    = 2026-023E
OBJECT_ID      = 2026-023E
CENTER_NAME    = EARTH
REF_FRAME      = TEME
TIME_SYSTEM    = UTC
MEAN_ELEMENT_THEORY = SGP/SGP4

EPOCH          = 2026-02-12T21:05:47.538816
MEAN_MOTION    = 15.22401220
ECCENTRICITY   = .0018626
INCLINATION    = 96.6370
RA_OF_ASC_NODE = 119.7057
ARG_OF_PERICENTER = 213.5667
MEAN_ANOMALY   = 146.4393

EPHEMERIS_TYPE = 0
CLASSIFICATION_TYPE = U
NORAD_CAT_ID   = 67678
ELEMENT_SET_NO = 999
REV_AT_EPOCH   = 107
BSTAR          = .56796E-3
MEAN_MOTION_DOT = .13135E-3
MEAN_MOTION_DDOT = 0

CCSDS_OMM_VERS = 2.0
CREATION_DATE  = 
ORIGINATOR     = 

OBJECT_NAME    = 2026-023F
OBJECT_ID      = 2026-023F
CENTER_NAME    = EARTH
REF_FRAME      = TEME
TIME_SYSTEM    = UTC
MEAN_ELEMENT_THEORY = SGP/SGP4

EPOCH          = 2026-02-12T21:04:48.988992
MEAN_MOTION    = 15.22530343
ECCENTRICITY   = .0020552
INCLINATION    = 96.6376
RA_OF_ASC_NODE = 122.2019
ARG_OF_PERICENTER = 208.0376
MEAN_ANOMALY   = 151.9757

EPHEMERIS_TYPE = 0
CLASSIFICATION_TYPE = U
NORAD_CAT_ID   = 67679
ELEMENT_SET_NO = 999
REV_AT_EPOCH   = 106
BSTAR          = .53377E-3
MEAN_MOTION_DOT = .124E-3
MEAN_MOTION_DDOT = 0

CCSDS_OMM_VERS = 2.0
CREATION_DATE  = 
ORIGINATOR     = 

OBJECT_NAME    = 2026-023G
OBJECT_ID      = 2026-023G
CENTER_NAME    = EARTH
REF_FRAME      = TEME
TIME_SYSTEM    = UTC
MEAN_ELEMENT_THEORY = SGP/SGP4

EPOCH          = 2026-02-11T18:16:07.603104
MEAN_MOTION    = 15.22461471
ECCENTRICITY   = .00219813
INCLINATION    = 96.6308
RA_OF_ASC_NODE = 121.2169
ARG_OF_PERICENTER = 208.3069
MEAN_ANOMALY   = 151.6977

EPHEMERIS_TYPE = 0
CLASSIFICATION_TYPE = U
NORAD_CAT_ID   = 67680
ELEMENT_SET_NO = 999
REV_AT_EPOCH   = 89
BSTAR          = .18544454E-3
MEAN_MOTION_DOT = .426E-4
MEAN_MOTION_DDOT = 0

CCSDS_OMM_VERS = 2.0
CREATION_DATE  = 
ORIGINATOR     = 

OBJECT_NAME    = 2026-023H
OBJECT_ID      = 2026-023H
CENTER_NAME    = EARTH
REF_FRAME      = TEME
TIME_SYSTEM    = UTC
MEAN_ELEMENT_THEORY = SGP/SGP4

EPOCH          = 2026-02-11T18:15:54.484128
MEAN_MOTION    = 15.22485070
ECCENTRICITY   = .0021935
INCLINATION    = 96.6434
RA_OF_ASC_NODE = 121.2090
ARG_OF_PERICENTER = 207.5112
MEAN_ANOMALY   = 152.4967

EPHEMERIS_TYPE = 0
CLASSIFICATION_TYPE = U
NORAD_CAT_ID   = 67681
ELEMENT_SET_NO = 999
REV_AT_EPOCH   = 89
BSTAR          = .13313E-3
MEAN_MOTION_DOT = .3043E-4
MEAN_MOTION_DDOT = 0

CCSDS_OMM_VERS = 2.0
CREATION_DATE  = 
ORIGINATOR     = 

OBJECT_NAME    = 2026-023J
OBJECT_ID      = 2026-023J
CENTER_NAME    = EARTH
REF_FRAME      = TEME
TIME_SYSTEM    = UTC
MEAN_ELEMENT_THEORY = SGP/SGP4

EPOCH          = 2026-02-12T11:36:49.416192
MEAN_MOTION    = 15.22559272
ECCENTRICITY   = .00223262
INCLINATION    = 96.6404
RA_OF_ASC_NODE = 121.8631
ARG_OF_PERICENTER = 202.1000
MEAN_ANOMALY   = 157.9278

EPHEMERIS_TYPE = 0
CLASSIFICATION_TYPE = U
NORAD_CAT_ID   = 67682
ELEMENT_SET_NO = 999
REV_AT_EPOCH   = 100
BSTAR          = .6592174E-3
MEAN_MOTION_DOT = .15363E-3
MEAN_MOTION_DDOT = 0

CCSDS_OMM_VERS = 2.0
CREATION_DATE  = 
ORIGINATOR     = 

OBJECT_NAME    = ISS OBJECT XZ
OBJECT_ID      = 1998-067XZ
CENTER_NAME    = EARTH
REF_FRAME      = TEME
TIME_SYSTEM    = UTC
MEAN_ELEMENT_THEORY = SGP/SGP4

EPOCH          = 2026-02-12T18:56:01.640832
MEAN_MOTION    = 15.49808284
ECCENTRICITY   = .0010747
INCLINATION    = 51.6302
RA_OF_ASC_NODE = 195.3798
ARG_OF_PERICENTER = 105.6090
MEAN_ANOMALY   = 254.6085

EPHEMERIS_TYPE = 0
CLASSIFICATION_TYPE = U
NORAD_CAT_ID   = 67683
ELEMENT_SET_NO = 999
REV_AT_EPOCH   = 92
BSTAR          = .69061E-3
MEAN_MOTION_DOT = .38964E-3
MEAN_MOTION_DDOT = 0

CCSDS_OMM_VERS = 2.0
CREATION_DATE  = 
ORIGINATOR     = 

OBJECT_NAME    = GXIBA-1
OBJECT_ID      = 1998-067YA
CENTER_NAME    = EARTH
REF_FRAME      = TEME
TIME_SYSTEM    = UTC
MEAN_ELEMENT_THEORY = SGP/SGP4

EPOCH          = 2026-02-12T18:52:22.257408
MEAN_MOTION    = 15.50527877
ECCENTRICITY   = .0012565
INCLINATION    = 51.6298
RA_OF_ASC_NODE = 195.3636
ARG_OF_PERICENTER = 100.3020
MEAN_ANOMALY   = 259.9386

EPHEMERIS_TYPE = 0
CLASSIFICATION_TYPE = U
NORAD_CAT_ID   = 67684
ELEMENT_SET_NO = 999
REV_AT_EPOCH   = 92
BSTAR          = .11236E-2
MEAN_MOTION_DOT = .65614E-3
MEAN_MOTION_DDOT = 0

