STARLINK-36616          
1 67672U 26022AA  26043.83335647 -.01644748  00000+0 -66184-2 0  9996
2 67672  97.2790  76.5989 0001605  75.2298  44.0929 15.89044334  2891
COSMOS 2600             
1 67674U 26023A   26043.80691183  .00076740  00000+0  37639-3 0  9998
2 67674  96.6494 120.2298 0001930  65.6252 294.5220 15.82023529  1117
2026-023B               
1 67675U 26023B   26043.81339970  .00012407  00000+0  53752-3 0  9997
2 67675  96.6411 119.6466 0017438 219.7580 140.2382 15.22366011  1073
2026-023C               
1 67676U 26023C   26043.87888720  .00012940  00000+0  55908-3 0  9993
2 67676  96.6446 119.7164 0018638 208.8936 151.1272 15.22430334  1243
2026-023D               
1 67677U 26023D   26043.87938704  .00011567  00000+0  50190-3 0  9994
2 67677  96.6477 119.6991 0018755 214.2761 145.7269 15.22308185  1076
2026-023E               
1 67678U 26023E   26043.87902244  .00013135  00000+0  56796-3 0  9996
2 67678  96.6370 119.7057 0018626 213.5667 146.4393 15.22401220  1077
2026-023F               
1 67679U 26023F   26043.87834478  .00012400  00000+0  53377-3 0  9996
2 67679  96.6376 122.2019 0020552 208.0376 151.9757 15.22530343  1061
2026-023G               
1 67680U 26023G   26042.76119911  .00004260  00000+0  18544-3 0  9995
2 67680  96.6308 121.2169 0021981 208.3069 151.6977 15.22461471   898
2026-023H               
1 67681U 26023H   26042.76104727  .00003043  00000+0  13313-3 0  9992
2 67681  96.6434 121.2090 0021935 207.5112 152.4967 15.22485070   890
2026-023J               
1 67682U 26023J   26043.48390528  .00015363  00000+0  65922-3 0  9990
2 67682  96.6404 121.8631 0022326 202.1000 157.9278 15.22559272  1002
ISS OBJECT XZ           
1 67683U 98067XZ  26043.78890788  .00038964  00000+0  69061-3 0  9994
2 67683  51.6302 195.3798 0010747 105.6090 254.6085 15.49808284   921
GXIBA-1                 
1 67684U 98067YA  26043.78636872  .00065614  00000+0  11236-2 0  9999
2 67684  51.6298 195.3636 0012565 100.3020 259.9386 15.50527877   922
